{"type": "FeatureCollection", "features": [ {"type": "Feature", "properties": {"norad_id": 39778, "name": "IRIDIUM 33 DEB", "group": "iridium-33-debris", "lat": 38.328758410218455, "lon": 49.75043437015077, "alt_km": 703.7914865583116, "timestamp": "2025-12-04T07:39:36.517906+00:00", "meta": {"OBJECT_NAME": "IRIDIUM 33 DEB", "OBJECT_ID": "1997-051AAK", "EPOCH": "2025-12-03T11:39:58.195872", "MEAN_MOTION": 14.54148527, "ECCENTRICITY": 0.00088134, "INCLINATION": 86.3788, "RA_OF_ASC_NODE": 47.2421, "ARG_OF_PERICENTER": 68.6106, "MEAN_ANOMALY": 291.604, "EPHEMERIS_TYPE": 0, "CLASSIFICATION_TYPE": "U", "NORAD_CAT_ID": 39778, "ELEMENT_SET_NO": 999, "REV_AT_EPOCH": 60558, "BSTAR": 0.0013693444, "MEAN_MOTION_DOT": 5.812e-05, "MEAN_MOTION_DDOT": 0}, "tle": {"line1": "1 39778U 97051AAK 25337.48609023  .00005812  00000+0  13693-2 0  9997", "line2": "2 39778  86.3788  47.2421 0008813  68.6106 291.6040 14.54148527605580"}}, "geometry": {"type": "Point", "coordinates": [49.75043437015077, 38.328758410218455]}}, {"type": "Feature", "properties": {"norad_id": 39781, "name": "IRIDIUM 33 DEB", "group": "iridium-33-debris", "lat": 81.88767091239494, "lon": 54.9979244456838, "alt_km": 938.0801153564198, "timestamp": "2025-12-04T07:39:36.517915+00:00", "meta": {"OBJECT_NAME": "IRIDIUM 33 DEB", "OBJECT_ID": "1997-051AAN", "EPOCH": "2025-12-01T14:05:13.737984", "MEAN_MOTION": 14.20093316, "ECCENTRICITY": 0.01818611, "INCLINATION": 86.3695, "RA_OF_ASC_NODE": 262.5729, "ARG_OF_PERICENTER": 308.3699, "MEAN_ANOMALY": 228.4219, "EPHEMERIS_TYPE": 0, "CLASSIFICATION_TYPE": "U", "NORAD_CAT_ID": 39781, "ELEMENT_SET_NO": 999, "REV_AT_EPOCH": 7948, "BSTAR": 0.0058998753, "MEAN_MOTION_DOT": 0.00014872, "MEAN_MOTION_DDOT": 0}, "tle": {"line1": "1 39781U 97051AAN 25335.58696456  .00014872  00000+0  58999-2 0  9990", "line2": "2 39781  86.3695 262.5729 0181861 308.3699 228.4219 14.20093316 79488"}}, "geometry": {"type": "Point", "coordinates": [54.9979244456838, 81.88767091239494]}}, {"type": "Feature", "properties": {"norad_id": 39783, "name": "IRIDIUM 33 DEB", "group": "iridium-33-debris", "lat": -57.46800287858322, "lon": -106.42614979495471, "alt_km": 493.20865649328607, "timestamp": "2025-12-04T07:39:36.517924+00:00", "meta": {"OBJECT_NAME": "IRIDIUM 33 DEB", "OBJECT_ID": "1997-051AAQ", "EPOCH": "2025-11-16T15:05:40.850592", "MEAN_MOTION": 15.19327111, "ECCENTRICITY": 0.00057535, "INCLINATION": 86.1306, "RA_OF_ASC_NODE": 268.8004, "ARG_OF_PERICENTER": 179.9151, "MEAN_ANOMALY": 1.8316, "EPHEMERIS_TYPE": 0, "CLASSIFICATION_TYPE": "U", "NORAD_CAT_ID": 39783, "ELEMENT_SET_NO": 999, "REV_AT_EPOCH": 60401, "BSTAR": 0.010398125, "MEAN_MOTION_DOT": 0.00226179, "MEAN_MOTION_DDOT": 0}, "tle": {"line1": "1 39783U 97051AAQ 25320.62894503  .00226179  00000+0  10398-1 0  9999", "line2": "2 39783  86.1306 268.8004 0005753 179.9151   1.8316 15.19327111604018"}}, "geometry": {"type": "Point", "coordinates": [-106.42614979495471, -57.46800287858322]}}, {"type": "Feature", "properties": {"norad_id": 40996, "name": "IRIDIUM 33 DEB", "group": "iridium-33-debris", "lat": 36.81133816935519, "lon": -177.39399996255764, "alt_km": 574.203895375229, "timestamp": "2025-12-04T07:39:36.517934+00:00", "meta": {"OBJECT_NAME": "IRIDIUM 33 DEB", "OBJECT_ID": "1997-051ABJ", "EPOCH": "2025-12-02T08:31:11.979264", "MEAN_MOTION": 14.95250831, "ECCENTRICITY": 0.00120962, "INCLINATION": 86.3524, "RA_OF_ASC_NODE": 6.2584, "ARG_OF_PERICENTER": 92.2467, "MEAN_ANOMALY": 284.2756, "EPHEMERIS_TYPE": 0, "CLASSIFICATION_TYPE": "U", "NORAD_CAT_ID": 40996, "ELEMENT_SET_NO": 999, "REV_AT_EPOCH": 62333, "BSTAR": 0.0031243939, "MEAN_MOTION_DOT": 0.0003457, "MEAN_MOTION_DDOT": 0}, "tle": {"line1": "1 40996U 97051ABJ 25336.35499976  .00034570  00000+0  31244-2 0  9995", "line2": "2 40996  86.3524   6.2584 0012096  92.2467 284.2756 14.95250831623330"}}, "geometry": {"type": "Point", "coordinates": [-177.39399996255764, 36.81133816935519]}}, {"type": "Feature", "properties": {"norad_id": 40998, "name": "IRIDIUM 33 DEB", "group": "iridium-33-debris", "lat": -25.249328289039084, "lon": 55.543342161679725, "alt_km": 752.0397277677403, "timestamp": "2025-12-04T07:39:36.517945+00:00", "meta": {"OBJECT_NAME": "IRIDIUM 33 DEB", "OBJECT_ID": "1997-051ABL", "EPOCH": "2025-12-03T12:06:12.154176", "MEAN_MOTION": 14.45043538, "ECCENTRICITY": 0.00095708, "INCLINATION": 86.3836, "RA_OF_ASC_NODE": 57.6004, "ARG_OF_PERICENTER": 108.6038, "MEAN_ANOMALY": 309.9308, "EPHEMERIS_TYPE": 0, "CLASSIFICATION_TYPE": "U", "NORAD_CAT_ID": 40998, "ELEMENT_SET_NO": 999, "REV_AT_EPOCH": 6548, "BSTAR": 0.00081638604, "MEAN_MOTION_DOT": 2.87e-05, "MEAN_MOTION_DDOT": 0}, "tle": {"line1": "1 40998U 97051ABL 25337.50430734  .00002870  00000+0  81639-3 0  9994", "line2": "2 40998  86.3836  57.6004 0009570 108.6038 309.9308 14.45043538 65487"}}, "geometry": {"type": "Point", "coordinates": [55.543342161679725, -25.249328289039084]}}, {"type": "Feature", "properties": {"norad_id": 46435, "name": "IRIDIUM 33 DEB", "group": "iridium-33-debris", "lat": -57.214416333433654, "lon": 23.36041802092674, "alt_km": 729.7366078734576, "timestamp": "2025-12-04T07:39:36.517956+00:00", "meta": {"OBJECT_NAME": "IRIDIUM 33 DEB", "OBJECT_ID": "1997-051ABN", "EPOCH": "2025-12-01T21:34:01.840224", "MEAN_MOTION": 14.31281633, "ECCENTRICITY": 0.02132677, "INCLINATION": 86.2832, "RA_OF_ASC_NODE": 198.6078, "ARG_OF_PERICENTER": 311.3277, "MEAN_ANOMALY": 63.4086, "EPHEMERIS_TYPE": 0, "CLASSIFICATION_TYPE": "U", "NORAD_CAT_ID": 46435, "ELEMENT_SET_NO": 999, "REV_AT_EPOCH": 7761, "BSTAR": 0.0078564893, "MEAN_MOTION_DOT": 0.00026766, "MEAN_MOTION_DDOT": 0}, "tle": {"line1": "1 46435U 97051ABN 25335.89863241  .00026766  00000+0  78565-2 0  9992", "line2": "2 46435  86.2832 198.6078 0213267 311.3277  63.4086 14.31281633 77617"}}, "geometry": {"type": "Point", "coordinates": [23.36041802092674, -57.214416333433654]}}, {"type": "Feature", "properties": {"norad_id": 46734, "name": "IRIDIUM 33 DEB", "group": "iridium-33-debris", "lat": 47.94833129786075, "lon": -177.59281685715305, "alt_km": 765.5919443655002, "timestamp": "2025-12-04T07:39:36.517965+00:00", "meta": {"OBJECT_NAME": "IRIDIUM 33 DEB", "OBJECT_ID": "1997-051ABR", "EPOCH": "2025-12-03T20:12:35.443296", "MEAN_MOTION": 14.41795233, "ECCENTRICITY": 0.00394426, "INCLINATION": 86.2642, "RA_OF_ASC_NODE": 6.7702, "ARG_OF_PERICENTER": 5.4679, "MEAN_ANOMALY": 171.2392, "EPHEMERIS_TYPE": 0, "CLASSIFICATION_TYPE": "U", "NORAD_CAT_ID": 46734, "ELEMENT_SET_NO": 999, "REV_AT_EPOCH": 62882, "BSTAR": 0.0014594249, "MEAN_MOTION_DOT": 4.83e-05, "MEAN_MOTION_DDOT": 0}, "tle": {"line1": "1 46734U 97051ABR 25337.84207689  .00004830  00000+0  14594-2 0  9999", "line2": "2 46734  86.2642   6.7702 0039442   5.4679 171.2392 14.41795233628829"}}, "geometry": {"type": "Point", "coordinates": [-177.59281685715305, 47.94833129786075]}}, {"type": "Feature", "properties": {"norad_id": 46965, "name": "IRIDIUM 33 DEB", "group": "iridium-33-debris", "lat": 71.79251277598797, "lon": -4.331364591942289, "alt_km": 680.9945911511777, "timestamp": "2025-12-04T07:39:36.517974+00:00", "meta": {"OBJECT_NAME": "IRIDIUM 33 DEB", "OBJECT_ID": "1997-051ABX", "EPOCH": "2025-12-01T19:17:57.587136", "MEAN_MOTION": 14.60159185, "ECCENTRICITY": 0.00196274, "INCLINATION": 86.3356, "RA_OF_ASC_NODE": 345.5484, "ARG_OF_PERICENTER": 10.7692, "MEAN_ANOMALY": 169.2127, "EPHEMERIS_TYPE": 0, "CLASSIFICATION_TYPE": "U", "NORAD_CAT_ID": 46965, "ELEMENT_SET_NO": 999, "REV_AT_EPOCH": 62108, "BSTAR": 0.00078040871, "MEAN_MOTION_DOT": 3.788e-05, "MEAN_MOTION_DDOT": 0}, "tle": {"line1": "1 46965U 97051ABX 25335.80413874  .00003788  00000+0  78041-3 0  9993", "line2": "2 46965  86.3356 345.5484 0019627  10.7692 169.2127 14.60159185621081"}}, "geometry": {"type": "Point", "coordinates": [-4.331364591942289, 71.79251277598797]}}, {"type": "Feature", "properties": {"norad_id": 46971, "name": "IRIDIUM 33 DEB", "group": "iridium-33-debris", "lat": 78.11364802951019, "lon": 139.364002242561, "alt_km": 569.650400306472, "timestamp": "2025-12-04T07:39:36.517983+00:00", "meta": {"OBJECT_NAME": "IRIDIUM 33 DEB", "OBJECT_ID": "1997-051ACD", "EPOCH": "2025-11-30T18:57:44.502624", "MEAN_MOTION": 14.96904917, "ECCENTRICITY": 0.00065248, "INCLINATION": 86.3392, "RA_OF_ASC_NODE": 338.7285, "ARG_OF_PERICENTER": 8.9727, "MEAN_ANOMALY": 165.6369, "EPHEMERIS_TYPE": 0, "CLASSIFICATION_TYPE": "U", "NORAD_CAT_ID": 46971, "ELEMENT_SET_NO": 999, "REV_AT_EPOCH": 64051, "BSTAR": 0.0032009998, "MEAN_MOTION_DOT": 0.00036919, "MEAN_MOTION_DDOT": 0}, "tle": {"line1": "1 46971U 97051ACD 25334.79009841  .00036919  00000+0  32010-2 0  9999", "line2": "2 46971  86.3392 338.7285 0006524   8.9727 165.6369 14.96904917640518"}}, "geometry": {"type": "Point", "coordinates": [139.364002242561, 78.11364802951019]}}, {"type": "Feature", "properties": {"norad_id": 46974, "name": "IRIDIUM 33 DEB", "group": "iridium-33-debris", "lat": -83.65530431179747, "lon": 73.33581094363119, "alt_km": 719.1381759913038, "timestamp": "2025-12-04T07:39:36.517993+00:00", "meta": {"OBJECT_NAME": "IRIDIUM 33 DEB", "OBJECT_ID": "1997-051ACG", "EPOCH": "2025-12-03T15:25:18.733152", "MEAN_MOTION": 14.43893104, "ECCENTRICITY": 0.00960014, "INCLINATION": 86.2979, "RA_OF_ASC_NODE": 109.2433, "ARG_OF_PERICENTER": 216.6177, "MEAN_ANOMALY": 142.8439, "EPHEMERIS_TYPE": 0, "CLASSIFICATION_TYPE": "U", "NORAD_CAT_ID": 46974, "ELEMENT_SET_NO": 999, "REV_AT_EPOCH": 57377, "BSTAR": 0.0066247967, "MEAN_MOTION_DOT": 0.0002397, "MEAN_MOTION_DDOT": 0}, "tle": {"line1": "1 46974U 97051ACG 25337.64257793  .00023970  00000+0  66248-2 0  9993", "line2": "2 46974  86.2979 109.2433 0096001 216.6177 142.8439 14.43893104573778"}}, "geometry": {"type": "Point", "coordinates": [73.33581094363119, -83.65530431179747]}}]}